BEIDOU-3 M14            
1 43623U 18072B   26139.94259778 -.00000042  00000+0  00000+0 0  9993
2 43623  56.6029  63.5862 0006633 348.9245  11.0555  1.86231264 52121
BEIDOU-3 M16            
1 43647U 18078A   26140.09835424 -.00000057  00000+0  00000+0 0  9997
2 43647  54.1166 300.9702 0007819  40.0473 319.9852  1.86232221 51632
BEIDOU-3 M15            
1 43648U 18078B   26140.22765656 -.00000058  00000+0  00000+0 0  9993
2 43648  54.1126 300.9662 0004933  53.7821 306.2387  1.86232235 51655
BEIDOU-3 G1             
1 43683U 18085A   26140.55345513 -.00000114  00000+0  00000+0 0  9995
2 43683   2.7989  98.1255 0007842 341.4121 157.8855  1.00271306 27781
BEIDOU-3 M17            
1 43706U 18093A   26138.35612889  .00000068  00000+0  00000+0 0  9995
2 43706  54.1671 183.3085 0009685 290.9034 146.3367  1.86228319 50981
BEIDOU-3 M18            
1 43707U 18093B   26140.25184819  .00000042  00000+0  00000+0 0  9997
2 43707  54.1675 183.2362 0007661 320.8640  39.1548  1.86226636 51016
BEIDOU-3 IGSO-1         
1 44204U 19023A   26132.76772565 -.00000227  00000+0  00000+0 0  9998
2 44204  58.6468  38.0171 0023856 234.3090 349.8662  1.00250503  6851
BEIDOU-2 G8             
1 44231U 19027A   26140.62165007 -.00000253  00000+0  00000+0 0  9992
2 44231   1.5894  74.4357 0010687 280.4337 251.7274  1.00270236 25806
BEIDOU-3 IGSO-2         
1 44337U 19035A   26139.63539042 -.00000079  00000+0  00000+0 0  9997
2 44337  55.2397 159.1126 0039530 216.4700 210.4277  1.00275192 25387
BEIDOU-3 M24            
1 44542U 19061A   26138.71000030  .00000063  00000+0  00000+0 0  9994
2 44542  54.3946 183.7224 0008104   2.2615 357.8273  1.86229135 45245
BEIDOU-3 M23            
1 44543U 19061B   26139.39368032  .00000053  00000+0  00000+0 0  9998
2 44543  54.3929 183.6676 0005334 341.1368  29.0987  1.86227410 45265
BEIDOU-3 IGSO-3         
1 44709U 19073A   26120.85038409 -.00000212  00000+0  00000+0 0  9996
2 44709  54.8842 281.4069 0042404 188.8195 170.9972  1.00251230 23982
BEIDOU-3 M22            
1 44793U 19078A   26138.54935259 -.00000056  00000+0  00000+0 0  9994
2 44793  53.9642 300.8701 0006964  48.9586 311.0741  1.86227153 44091
BEIDOU-3 M21            
1 44794U 19078B   26136.54150291 -.00000055  00000+0  00000+0 0  9997
2 44794  53.9390 300.9027 0004900  45.2623 314.7514  1.86227806 44064
BEIDOU-3 M19            
1 44864U 19090A   26140.17168096 -.00000042  00000+0  00000+0 0  9991
2 44864  56.5361  63.7167 0018959 297.3569 173.5727  1.86231025 43712
BEIDOU-3 M20            
1 44865U 19090B   26137.47677451 -.00000044  00000+0  00000+0 0  9993
2 44865  56.5346  63.8405 0016733 310.1234 243.6125  1.86231384 43644
BEIDOU-3 G2             
1 45344U 20017A   26140.60892206 -.00000146  00000+0  00000+0 0  9996
2 45344   2.8100  46.9129 0002281   8.7574 121.8519  1.00271163 22987
BEIDOU-3 G3             
1 45807U 20040A   26140.61497670 -.00000359  00000+0  00000+0 0  9999
2 45807   2.3809  67.3642 0003038 332.1909 170.6610  1.00270658 21796
BEIDOU-3 G4             
1 56564U 23066A   26140.62078339 -.00000286  00000+0  00000+0 0  9999
2 56564   0.5213 324.9658 0003568 172.9163 103.9273  1.00273351 11118
BEIDOU-3 M28            
1 58654U 23207A   26138.22956414 -.00000045  00000+0  00000+0 0  9993
2 58654  55.7276  63.3136 0004089 333.0756  26.8913  1.86229592 16282
BEIDOU-3 M26            
1 58655U 23207B   26140.17490119 -.00000044  00000+0  00000+0 0  9995
2 58655  55.7314  63.2344 0004197 311.9075  48.0520  1.86229621 16301
BEIDOU-3 M25            
1 61186U 24168B   26139.73495263 -.00000058  00000+0  00000+0 0  9995
2 61186  54.4996 303.2302 0002975 311.8779 230.3792  1.86229793 11255
BEIDOU-3 M27            
1 61187U 24168C   26140.59938868 -.00000060  00000+0  00000+0 0  9998
2 61187  54.4942 303.1830 0002146  47.7364 129.0996  1.86229911  8749
